OBJECT_NAME,OBJECT_ID,EPOCH,MEAN_MOTION,ECCENTRICITY,INCLINATION,RA_OF_ASC_NODE,ARG_OF_PERICENTER,MEAN_ANOMALY,EPHEMERIS_TYPE,CLASSIFICATION_TYPE,NORAD_CAT_ID,ELEMENT_SET_NO,REV_AT_EPOCH,BSTAR,MEAN_MOTION_DOT,MEAN_MOTION_DDOT
HAWK-5A,2022-057AB,2026-07-18T23:02:44.952000,15.52406525,.00030217,97.6637,0.8916,320.0263,40.0766,0,U,52757,999,23127,.17278027E-3,.10443E-3,0
HAWK-6B,2023-011A,2026-07-18T23:38:01.454784,15.23174312,.0004544,40.4978,166.5679,259.8721,100.1576,0,U,55324,999,19269,.11084188E-3,.248E-4,0
HAWK-6C,2023-011C,2026-07-19T05:54:46.275552,15.23174872,.00050208,40.4967,161.8766,255.4049,104.6204,0,U,55326,999,19274,.98330492E-4,.2177E-4,0
HAWK-6A,2023-011D,2026-07-19T05:54:49.537152,15.23175130,.00046922,40.4978,163.5036,252.4511,107.5786,0,U,55327,999,19274,.10267981E-3,.2282E-4,0
HAWK-7A,2023-054P,2026-07-19T05:01:15.902976,15.27656315,.0001078,97.2654,86.7319,306.7519,53.3622,0,U,56191,999,18191,.10627835E-3,.2801E-4,0
HAWK-7B,2023-054R,2026-07-19T05:01:10.292160,15.27654842,.00008898,97.2680,85.0071,7.1924,352.9328,0,U,56193,999,18191,.10764046E-3,.2837E-4,0
HAWK-7C,2023-054Y,2026-07-19T05:00:59.086944,15.27657234,.00005158,97.2656,85.7659,330.7337,29.3873,0,U,56200,999,18191,.10551937E-3,.278E-4,0
